OBJECT_NAME,OBJECT_ID,EPOCH,MEAN_MOTION,ECCENTRICITY,INCLINATION,RA_OF_ASC_NODE,ARG_OF_PERICENTER,MEAN_ANOMALY,EPHEMERIS_TYPE,CLASSIFICATION_TYPE,NORAD_CAT_ID,ELEMENT_SET_NO,REV_AT_EPOCH,BSTAR,MEAN_MOTION_DOT,MEAN_MOTION_DDOT
GHOST-3,2023-084AC,2026-05-17T09:08:32.148960,15.46813588,.0006873,97.6182,284.3341,55.1297,305.0598,0,U,56958,999,16325,.23606E-3,.11757E-3,0
TOMORROW-R2,2023-084AG,2026-05-17T09:45:55.747872,15.89582304,.0001983,97.5925,297.6478,273.9973,86.1072,0,U,56962,999,16414,.47562E-3,.137809E-2,.90895E-5
AFR-1,2023-084AJ,2026-05-17T12:39:13.867776,15.28268084,.0012055,97.6233,273.4951,88.3317,271.9303,0,U,56964,999,16254,.11982E-3,.3227E-4,0
METEOR-M2 3,2023-091A,2026-05-17T12:49:27.312096,14.24043904,.0002792,98.6106,193.1363,254.2936,105.7935,0,U,57166,999,15015,.15275E-4,-.8E-7,0
UMKA 1 (RS40S),2023-091G,2026-05-17T11:52:28.262784,15.20436451,.001187,97.5068,196.3154,220.5765,139.4586,0,U,57172,999,15934,.19833E-3,.4263E-4,0
2023-091H,2023-091H,2026-05-17T11:23:52.850400,15.27919529,.0009286,97.5065,200.4323,213.0663,146.9996,0,U,57173,999,15961,.26863E-3,.7253E-4,0
2023-091J,2023-091J,2026-05-17T12:25:37.437888,15.13701447,.0011752,97.5075,191.0529,250.9984,108.9974,0,U,57174,999,15899,.10993E-3,.1916E-4,0
CUBEBEL 2 (EU11S),2023-091K,2026-05-17T11:39:05.089248,15.28376229,.0009319,97.5068,200.4440,214.8598,145.2032,0,U,57175,999,15961,.28854E-3,.7906E-4,0
SITRO-AIS 5 (KATYS),2023-091L,2026-05-17T12:12:38.490912,15.28693625,.0011149,97.5077,201.1317,202.8892,157.1852,0,U,57176,999,15965,.29429E-3,.8149E-4,0
ZORKIY-2M 1,2023-091M,2026-05-17T11:34:34.539744,15.20470188,.0012522,97.5108,196.5519,217.5287,142.5075,0,U,57177,999,15933,.20067E-3,.4319E-4,0
CUBESX-HSE 3 (RS42S),2023-091N,2026-05-17T12:23:24.814752,15.30377359,.0010856,97.5108,202.7332,192.6014,167.4957,0,U,57178,999,15973,.29169E-3,.8507E-4,0
MONITOR-3 (RS58S),2023-091Q,2026-05-17T11:23:42.287136,15.27172416,.0011479,97.5100,200.7084,200.1902,159.8884,0,U,57180,999,15960,.2628E-3,.6938E-4,0
MONITOR-4 (RS57S),2023-091S,2026-05-17T12:30:37.994112,15.27270498,.0011439,97.5094,200.7244,200.4020,159.6763,0,U,57182,999,15961,.27313E-3,.7235E-4,0
MONITOR-2 (RS39S),2023-091U,2026-05-17T11:28:41.689056,15.18599900,.0010445,97.5090,195.9634,212.0644,147.9956,0,U,57184,999,15929,.1499E-3,.3035E-4,0
SVYATOBOR 1 (RS60S),2023-091X,2026-05-17T12:12:47.922336,15.26047335,.0009408,97.5106,201.1669,190.5987,169.5055,0,U,57187,999,15963,.2374E-3,.6045E-4,0
HORS 1,2023-091Y,2026-05-17T11:54:53.438976,15.26144048,.0008874,97.5084,200.9207,189.8669,170.2397,0,U,57188,999,15963,.22759E-3,.5808E-4,0
VIZARD-METEO (RS38S),2023-091Z,2026-05-17T12:26:53.964096,15.34977223,.0008117,97.5106,206.4121,169.8704,190.2704,0,U,57189,999,15998,.30841E-3,.10394E-3,0
SITRO-AIS 6 (CHIRKIN),2023-091AC,2026-05-17T11:36:49.176864,15.25303095,.0011284,97.5084,200.3851,206.3863,153.6802,0,U,57192,999,15960,.25493E-3,.6356E-4,0
SITRO-AIS 8 (ANOKHIN),2023-091AD,2026-05-17T12:18:20.117376,15.31238978,.0010483,97.5072,202.6029,198.1399,161.9470,0,U,57193,999,15975,.29296E-3,.8776E-4,0
SITRO-AIS 7 (FARTUSHNIY),2023-091AE,2026-05-17T11:32:31.437888,15.25005834,.0011121,97.5081,200.2225,207.3780,152.6873,0,U,57194,999,15959,.23518E-3,.5805E-4,0
AVION KALUGA 650,2023-091AF,2026-05-17T11:42:57.175200,15.19997657,.0009707,97.5107,197.1937,209.2354,150.8339,0,U,57195,999,15936,.1744E-3,.369E-4,0
HORS 2,2023-091AG,2026-05-17T12:28:57.746784,15.31052456,.0008511,97.5104,204.1494,181.4525,178.6693,0,U,57196,999,15983,.29212E-3,.8694E-4,0
A-SEANSAT-PG1,2023-091AH,2026-05-17T11:09:31.728384,15.35815302,.0007872,97.5094,206.4160,177.1612,182.9678,0,U,57197,999,15999,.36523E-3,.12662E-3,0
SITRO-AIS 10 (BURDAEV),2023-091AK,2026-05-17T11:23:26.221056,15.37366247,.0007454,97.5095,207.3106,171.1389,188.9988,0,U,57199,999,16004,.35717E-3,.13014E-3,0
SITRO-AIS 9 (SHCHUKIN),2023-091AM,2026-05-17T11:47:57.487776,15.36911103,.000767,97.5093,207.0811,171.6559,188.4814,0,U,57201,999,16003,.33695E-3,.12093E-3,0
UTMN 2 (RS27S),2023-091AP,2026-05-17T11:39:09.766944,15.31237395,.0008529,97.5102,204.2981,177.2333,182.8957,0,U,57203,999,15984,.2635E-3,.788E-4,0
SITRO-AIS 12 (SMIRENNIY),2023-091AQ,2026-05-17T11:42:42.912288,15.37197678,.000746,97.5106,207.5256,165.7901,194.3554,0,U,57204,999,16005,.34571E-3,.12525E-3,0
SITRO-AIS 11 (SHEFFER),2023-091AU,2026-05-17T12:13:49.550592,15.37592622,.0007364,97.5103,207.7757,165.5982,194.5474,0,U,57208,999,16007,.3488E-3,.128E-3,0
H2SAT (HEINRICH HERTZ),2023-093A,2026-05-17T09:14:12.888960,1.00284289,.0001259,0.0092,286.8173,202.4434,245.0801,0,U,57213,999,1060,0,0,0
KUZGTU 1 (RS47S),2023-091AV,2026-05-17T11:32:38.018976,15.29099695,.0010901,97.5080,201.6637,196.4146,163.6742,0,U,57217,999,15968,.28634E-3,.8025E-4,0
QIANKUN-1,2023-103B,2026-05-17T10:09:05.472000,16.07631960,.0025154,96.1616,184.3953,124.7163,235.6497,0,U,57422,999,16235,.23085E-4,.18752E-3,.18121E-5
FENGYUN 3F,2023-111A,2026-05-17T11:06:16.004736,14.19933243,.0001327,98.6842,208.0418,113.1839,246.9477,0,U,57490,999,14450,.32895E-4,.26E-6,0
METEOR 2-1 DEB,1975-064F,2026-05-15T22:55:05.239200,14.29204825,.00057889,81.2800,31.5156,146.3855,213.7695,0,U,57492,999,39838,.16694855E-2,.4253E-4,0
HJ-2F,2023-116A,2026-05-17T13:13:36.636672,15.21851535,.0009996,97.3845,143.3147,139.9945,220.2029,0,U,57519,999,15409,.23468E-3,.5272E-4,0
XRISM,2023-137A,2026-05-17T12:00:09.206784,15.12186292,.0007599,31.0011,198.3379,13.8058,346.2788,0,U,57800,999,14821,.15083E-3,.2766E-4,0
METEOR-M2 4,2024-039A,2026-05-17T12:20:33.063648,14.22426154,.0005909,98.6994,97.2014,257.4422,102.6095,0,U,59051,999,11490,.16534E-4,-.7E-7,0
GRBBETA,2024-128C,2026-05-17T11:43:58.018944,15.06365563,.0044813,61.9901,323.9502,128.3151,232.1985,0,U,60237,999,10164,.19526E-3,.2731E-4,0
TRANSPORTER-11 OBJECT A,2024-149A,2026-05-17T11:13:10.977024,15.32371706,.0002541,97.3736,217.5052,1.0000,359.1246,0,U,60468,999,9735,.19275E-3,.5946E-4,0
WARATAH SEED-1,2024-149B,2026-05-17T11:35:13.220160,15.35119754,.0001381,97.3694,218.0480,33.2727,326.8603,0,U,60469,999,9740,.27864E-3,.9418E-4,0
PHISAT 2,2024-149C,2026-05-17T10:55:59.632320,15.30577011,.000192,97.3762,216.8538,49.6222,310.5186,0,U,60470,999,9729,.16762E-3,.4878E-4,0
LEMUR-2-TOMATOKECHUP,2024-149D,2026-05-17T11:34:22.321056,15.35350613,.0001582,97.3801,219.4670,43.5831,316.5537,0,U,60471,999,9745,.2259E-3,.7675E-4,0
CONNECTA IOT-1,2024-149E,2026-05-17T03:48:13.515264,15.23281374,.0003002,97.3764,213.9791,58.7478,301.4052,0,U,60472,999,9707,.12463E-3,.2885E-4,0
LOPEN,2024-149F,2026-05-17T12:14:45.407328,15.38742596,.0001842,97.3782,220.6608,61.0523,299.0906,0,U,60473,999,9754,.27046E-3,.10276E-3,0
ROCK,2024-149G,2026-05-17T11:55:23.890656,15.38746484,.0001861,97.3777,220.6644,50.9849,309.1562,0,U,60474,999,9754,.26047E-3,.9894E-4,0
CONNECTA IOT-3,2024-149H,2026-05-17T10:37:43.152384,15.23293648,.0003632,97.3739,214.0207,41.9673,318.1842,0,U,60475,999,9712,.12624E-3,.2924E-4,0
QUBE,2024-149J,2026-05-17T12:03:19.337760,15.45703500,.000128,97.3780,223.3804,30.4029,329.7294,0,U,60476,999,9772,.32134E-3,.15437E-3,0
WREN-1,2024-149L,2026-05-17T05:21:25.783776,15.40278958,.0004202,97.3770,221.0416,34.1243,326.0272,0,U,60478,999,9755,.35815E-3,.14349E-3,0
TOMORROW-S1,2024-149M,2026-05-17T10:44:10.949280,15.32255738,.000276,97.3753,218.0273,34.3436,325.7984,0,U,60479,999,9738,.16972E-3,.5207E-4,0
FLOCK 4BE-18,2024-149N,2026-05-17T12:03:56.746368,15.40813092,.0003382,97.3733,220.9364,31.9486,328.1965,0,U,60480,999,9758,.28728E-3,.11693E-3,0
FLOCK 4BE-7,2024-149P,2026-05-17T11:26:26.308032,15.38982035,.0002809,97.3762,220.3159,43.2155,316.9310,0,U,60481,999,9752,.39E-3,.1498E-3,0
FLOCK 4BE-26,2024-149S,2026-05-17T05:07:22.251072,15.61074887,.000242,97.3682,221.8644,248.7798,111.3201,0,U,60484,999,9762,.12206E-2,.103753E-2,0
TOMORROW-S2,2024-149T,2026-05-17T11:28:46.798752,15.32270177,.0003561,97.3821,218.5180,50.2634,309.8921,0,U,60485,999,9738,.17883E-3,.5494E-4,0
FLOCK 4BE-36,2024-149U,2026-05-17T05:34:16.342176,15.41696726,.0003796,97.3747,221.3144,44.2871,315.8679,0,U,60486,999,9758,.27632E-3,.1158E-3,0
FLOCK 4BE-25,2024-149V,2026-05-17T04:35:38.435712,15.37975908,.0002437,97.3803,220.1519,53.7627,306.3843,0,U,60487,999,9747,.27152E-3,.10062E-3,0
FLOCK 4BE-31,2024-149W,2026-05-17T05:21:28.824192,15.42836186,.0002914,97.3805,222.0808,55.9542,304.1982,0,U,60488,999,9760,.33289E-3,.14514E-3,0
FLOCK 4BE-20,2024-149X,2026-05-17T04:54:08.286048,15.37195023,.0003815,97.3704,219.1231,42.9213,317.2328,0,U,60489,999,9745,.24955E-3,.901E-4,0
FLOCK 4BE-23,2024-149Y,2026-05-17T04:29:25.903104,15.36835414,.0003831,97.3785,219.4647,51.1662,308.9924,0,U,60490,999,9743,.28038E-3,.10017E-3,0
FLOCK 4BE-15,2024-149Z,2026-05-17T05:28:42.679200,15.52908869,.0003378,97.3702,221.6048,136.5668,223.5852,0,U,60491,999,9761,.11757E-2,.7355E-3,0
FLOCK 4BE-17,2024-149AA,2026-05-17T11:20:25.272672,15.38825377,.0003009,97.3778,220.6220,42.8809,317.2671,0,U,60492,999,9753,.28935E-3,.11031E-3,0
NUSAT-50 (NANCY ROMAN),2024-149AB,2026-05-17T11:40:15.722112,15.29281924,.0002023,97.3791,218.9693,327.4535,32.6580,0,U,60493,999,9743,.22396E-3,.6287E-4,0
FLOCK 4BE-22,2024-149AC,2026-05-17T11:32:56.453280,15.40180979,.0003776,97.3736,220.7751,45.8588,314.2968,0,U,60494,999,9757,.26888E-3,.10712E-3,0
FLOCK 4BE-34,2024-149AD,2026-05-17T11:58:02.997120,15.40215148,.0004166,97.3783,221.5950,55.6336,304.5304,0,U,60495,999,9760,.24542E-3,.978E-4,0
TYCHE,2024-149AE,2026-05-17T12:15:15.928128,15.25803156,.0003275,97.3757,215.7382,55.0273,305.1273,0,U,60496,999,9722,.12337E-3,.3081E-4,0
FLOCK 4BE-32,2024-149AF,2026-05-17T11:38:59.983872,15.41036981,.0003951,97.3725,221.1074,51.5342,308.6258,0,U,60497,999,9760,.30227E-3,.12402E-3,0
NUSAT-48 (HENRIETTA LEAVITT),2024-149AG,2026-05-17T11:36:11.350080,15.29897968,.0004546,97.3909,219.1392,44.4802,315.6802,0,U,60498,999,9744,.23421E-3,.6706E-4,0
